start=new Date('2022-07-16T00:00:00.000Z').valueOf();
sats=[{"TIME_SYSTEM":"UTC","MEAN_MOTION_DDOT":"0.0000000000000","OBJECT_ID":"2022-017M","MEAN_MOTION_DOT":"0.00044519","LAUNCH_DATE":"2022-02-25","REV_AT_EPOCH":"130","SITE":"AFWTR","ARG_OF_PERICENTER":"45.2684","ELEMENT_SET_NO":"999","PERIOD":"95.440","DECAY_DATE":null,"PERIAPSIS":"538.489","OBJECT_TYPE":"PAYLOAD","INCLINATION":"53.2168","FILE":"3514839","EPOCH":"2022-07-15T22:00:00.999936","SEMIMAJOR_AXIS":"6917.977","NORAD_CAT_ID":"51779","BSTAR":"0.00280010000000","RA_OF_ASC_NODE":"202.1543","OBJECT_NAME":"STARLINK-3611","GP_ID":"208203523","CENTER_NAME":"EARTH","ECCENTRICITY":"0.00019560","COUNTRY_CODE":"US","MEAN_ELEMENT_THEORY":"SGP4","APOAPSIS":"541.196","TLE_LINE2":"2 51779  53.2168 202.1543 0001956  45.2684  25.2487 15.08808275  1309","RCS_SIZE":"LARGE","REF_FRAME":"TEME","MEAN_MOTION":"15.08808275","CLASSIFICATION_TYPE":"U","MEAN_ANOMALY":"25.2487","TLE_LINE1":"1 51779U 22017M   22196.91667824  .00044519  00000-0  28001-2 0  9990","EPHEMERIS_TYPE":"0"},{"MEAN_MOTION_DDOT":"0.0000000000000","TIME_SYSTEM":"UTC","MEAN_MOTION_DOT":"0.00040494","OBJECT_ID":"2022-017N","REV_AT_EPOCH":"130","LAUNCH_DATE":"2022-02-25","ELEMENT_SET_NO":"999","ARG_OF_PERICENTER":"40.5024","SITE":"AFWTR","PERIOD":"95.439","DECAY_DATE":null,"OBJECT_TYPE":"PAYLOAD","PERIAPSIS":"537.930","INCLINATION":"53.2166","FILE":"3514839","SEMIMAJOR_AXIS":"6917.939","EPOCH":"2022-07-15T22:00:00.999936","NORAD_CAT_ID":"51780","BSTAR":"0.00254910000000","RA_OF_ASC_NODE":"202.1668","GP_ID":"208203773","OBJECT_NAME":"STARLINK-3617","ECCENTRICITY":"0.00027090","CENTER_NAME":"EARTH","APOAPSIS":"541.679","COUNTRY_CODE":"US","MEAN_ELEMENT_THEORY":"SGP4","TLE_LINE2":"2 51780  53.2166 202.1668 0002709  40.5024  84.8667 15.08820663  1306","RCS_SIZE":"LARGE","MEAN_MOTION":"15.08820663","REF_FRAME":"TEME","CLASSIFICATION_TYPE":"U","MEAN_ANOMALY":"84.8667","EPHEMERIS_TYPE":"0","TLE_LINE1":"1 51780U 22017N   22196.91667824  .00040494  00000-0  25491-2 0  9990"},{"TLE_LINE1":"1 51781U 22017P   22196.91667824  .00033195  00000-0  20957-2 0  9993","EPHEMERIS_TYPE":"0","MEAN_ANOMALY":"44.3849","CLASSIFICATION_TYPE":"U","MEAN_MOTION":"15.08809671","REF_FRAME":"TEME","RCS_SIZE":"LARGE","TLE_LINE2":"2 51781  53.2159 202.1625 0001945  46.2170  44.3849 15.08809671  1307","APOAPSIS":"541.184","COUNTRY_CODE":"US","MEAN_ELEMENT_THEORY":"SGP4","CENTER_NAME":"EARTH","ECCENTRICITY":"0.00019450","GP_ID":"208205025","OBJECT_NAME":"STARLINK-3580","RA_OF_ASC_NODE":"202.1625","BSTAR":"0.00209570000000","NORAD_CAT_ID":"51781","SEMIMAJOR_AXIS":"6917.973","EPOCH":"2022-07-15T22:00:00.999936","FILE":"3514839","INCLINATION":"53.2159","PERIAPSIS":"538.493","OBJECT_TYPE":"PAYLOAD","DECAY_DATE":null,"PERIOD":"95.439","ARG_OF_PERICENTER":"46.2170","ELEMENT_SET_NO":"999","SITE":"AFWTR","REV_AT_EPOCH":"130","LAUNCH_DATE":"2022-02-25","MEAN_MOTION_DOT":"0.00033195","OBJECT_ID":"2022-017P","MEAN_MOTION_DDOT":"0.0000000000000","TIME_SYSTEM":"UTC"},{"LAUNCH_DATE":"2022-02-25","REV_AT_EPOCH":"130","TIME_SYSTEM":"UTC","MEAN_MOTION_DDOT":"0.0000000000000","OBJECT_ID":"2022-017Q","MEAN_MOTION_DOT":"0.00048654","SITE":"AFWTR","ARG_OF_PERICENTER":"55.8242","ELEMENT_SET_NO":"999","PERIOD":"95.440","INCLINATION":"53.2133","FILE":"3514839","DECAY_DATE":null,"OBJECT_TYPE":"PAYLOAD","PERIAPSIS":"538.570","EPOCH":"2022-07-15T22:00:00.999936","SEMIMAJOR_AXIS":"6917.976","NORAD_CAT_ID":"51782","BSTAR":"0.00305670000000","ECCENTRICITY":"0.00018370","CENTER_NAME":"EARTH","COUNTRY_CODE":"US","MEAN_ELEMENT_THEORY":"SGP4","APOAPSIS":"541.112","RA_OF_ASC_NODE":"212.1653","OBJECT_NAME":"STARLINK-3616","GP_ID":"208205276","TLE_LINE2":"2 51782  53.2133 212.1653 0001837  55.8242 299.6894 15.08808693  1306","RCS_SIZE":"LARGE","MEAN_ANOMALY":"299.6894","TLE_LINE1":"1 51782U 22017Q   22196.91667824  .00048654  00000-0  30567-2 0  9998","EPHEMERIS_TYPE":"0","REF_FRAME":"TEME","MEAN_MOTION":"15.08808693","CLASSIFICATION_TYPE":"U"},{"INCLINATION":"53.2156","FILE":"3514839","OBJECT_TYPE":"PAYLOAD","PERIAPSIS":"538.426","DECAY_DATE":null,"SEMIMAJOR_AXIS":"6917.977","EPOCH":"2022-07-15T22:00:00.999936","REV_AT_EPOCH":"130","LAUNCH_DATE":"2022-02-25","MEAN_MOTION_DOT":"0.00042372","OBJECT_ID":"2022-017R","MEAN_MOTION_DDOT":"0.0000000000000","TIME_SYSTEM":"UTC","PERIOD":"95.440","ARG_OF_PERICENTER":"41.7519","ELEMENT_SET_NO":"999","SITE":"AFWTR","RCS_SIZE":"LARGE","TLE_LINE2":"2 51783  53.2156 202.1618 0002047  41.7519  68.8093 15.08808429  1301","TLE_LINE1":"1 51783U 22017R   22196.91667824  .00042372  00000-0  26667-2 0  9996","EPHEMERIS_TYPE":"0","MEAN_ANOMALY":"68.8093","CLASSIFICATION_TYPE":"U","MEAN_MOTION":"15.08808429","REF_FRAME":"TEME","BSTAR":"0.00266670000000","NORAD_CAT_ID":"51783","APOAPSIS":"541.258","MEAN_ELEMENT_THEORY":"SGP4","COUNTRY_CODE":"US","CENTER_NAME":"EARTH","ECCENTRICITY":"0.00020470","GP_ID":"208204024","OBJECT_NAME":"STARLINK-3628","RA_OF_ASC_NODE":"202.1618"},{"CLASSIFICATION_TYPE":"U","MEAN_MOTION":"15.08829224","REF_FRAME":"TEME","TLE_LINE1":"1 51784U 22017S   22196.91667824  .00028882  00000-0  18259-2 0  9995","EPHEMERIS_TYPE":"0","MEAN_ANOMALY":"329.9769","RCS_SIZE":"LARGE","TLE_LINE2":"2 51784  53.2141 212.1631 0001872  45.6306 329.9769 15.08829224  1301","GP_ID":"208204274","OBJECT_NAME":"STARLINK-3632","RA_OF_ASC_NODE":"212.1631","APOAPSIS":"541.073","MEAN_ELEMENT_THEORY":"SGP4","COUNTRY_CODE":"US","ECCENTRICITY":"0.00018720","CENTER_NAME":"EARTH","BSTAR":"0.00182590000000","NORAD_CAT_ID":"51784","SEMIMAJOR_AXIS":"6917.913","EPOCH":"2022-07-15T22:00:00.999936","PERIAPSIS":"538.483","OBJECT_TYPE":"PAYLOAD","DECAY_DATE":null,"FILE":"3514839","INCLINATION":"53.2141","PERIOD":"95.438","ELEMENT_SET_NO":"999","ARG_OF_PERICENTER":"45.6306","SITE":"AFWTR","MEAN_MOTION_DOT":"0.00028882","OBJECT_ID":"2022-017S","MEAN_MOTION_DDOT":"0.0000000000000","TIME_SYSTEM":"UTC","REV_AT_EPOCH":"130","LAUNCH_DATE":"2022-02-25"},{"PERIAPSIS":"538.407","OBJECT_TYPE":"PAYLOAD","DECAY_DATE":null,"FILE":"3514839","INCLINATION":"53.2168","EPOCH":"2022-07-15T22:00:00.999936","SEMIMAJOR_AXIS":"6917.982","OBJECT_ID":"2022-017T","MEAN_MOTION_DOT":"0.00040134","TIME_SYSTEM":"UTC","MEAN_MOTION_DDOT":"0.0000000000000","LAUNCH_DATE":"2022-02-25","REV_AT_EPOCH":"130","PERIOD":"95.440","SITE":"AFWTR","ELEMENT_SET_NO":"999","ARG_OF_PERICENTER":"51.9855","RCS_SIZE":"LARGE","TLE_LINE2":"2 51785  53.2168 202.1687 0002081  51.9855  78.5765 15.08806837  1301","CLASSIFICATION_TYPE":"U","REF_FRAME":"TEME","MEAN_MOTION":"15.08806837","EPHEMERIS_TYPE":"0","TLE_LINE1":"1 51785U 22017T   22196.91667824  .00040134  00000-0  25277-2 0  9998","MEAN_ANOMALY":"78.5765","BSTAR":"0.00252770000000","NORAD_CAT_ID":"51785","OBJECT_NAME":"STARLINK-3646","GP_ID":"208204525","RA_OF_ASC_NODE":"202.1687","COUNTRY_CODE":"US","MEAN_ELEMENT_THEORY":"SGP4","APOAPSIS":"541.286","ECCENTRICITY":"0.00020810","CENTER_NAME":"EARTH"},{"SITE":"AFWTR","ELEMENT_SET_NO":"999","ARG_OF_PERICENTER":"45.2071","PERIOD":"95.439","LAUNCH_DATE":"2022-02-25","REV_AT_EPOCH":"130","TIME_SYSTEM":"UTC","MEAN_MOTION_DDOT":"0.0000000000000","OBJECT_ID":"2022-017U","MEAN_MOTION_DOT":"0.00046316","EPOCH":"2022-07-15T22:00:00.999936","SEMIMAJOR_AXIS":"6917.943","FILE":"3514839","INCLINATION":"53.2131","DECAY_DATE":null,"OBJECT_TYPE":"PAYLOAD","PERIAPSIS":"538.477","ECCENTRICITY":"0.00019240","CENTER_NAME":"EARTH","MEAN_ELEMENT_THEORY":"SGP4","COUNTRY_CODE":"US","APOAPSIS":"541.139","RA_OF_ASC_NODE":"212.1675","OBJECT_NAME":"STARLINK-3638","GP_ID":"208204776","NORAD_CAT_ID":"51786","BSTAR":"0.00291080000000","MEAN_ANOMALY":"10.3637","TLE_LINE1":"1 51786U 22017U   22196.91667824  .00046316  00000-0  29108-2 0  9994","EPHEMERIS_TYPE":"0","REF_FRAME":"TEME","MEAN_MOTION":"15.08819492","CLASSIFICATION_TYPE":"U","TLE_LINE2":"2 51786  53.2131 212.1675 0001924  45.2071  10.3637 15.08819492  1304","RCS_SIZE":"LARGE"},{"FILE":"3514839","INCLINATION":"53.2147","DECAY_DATE":null,"PERIAPSIS":"538.496","OBJECT_TYPE":"PAYLOAD","EPOCH":"2022-07-15T22:00:00.999936","SEMIMAJOR_AXIS":"6917.952","LAUNCH_DATE":"2022-02-25","REV_AT_EPOCH":"130","TIME_SYSTEM":"UTC","MEAN_MOTION_DDOT":"0.0000000000000","OBJECT_ID":"2022-017V","MEAN_MOTION_DOT":"0.00048318","SITE":"AFWTR","ARG_OF_PERICENTER":"42.5392","ELEMENT_SET_NO":"999","PERIOD":"95.439","TLE_LINE2":"2 51787  53.2147 212.1621 0001910  42.5392 292.9847 15.08816438  1302","RCS_SIZE":"LARGE","MEAN_ANOMALY":"292.9847","TLE_LINE1":"1 51787U 22017V   22196.91667824  .00048318  00000-0  30352-2 0  9992","EPHEMERIS_TYPE":"0","REF_FRAME":"TEME","MEAN_MOTION":"15.08816438","CLASSIFICATION_TYPE":"U","NORAD_CAT_ID":"51787","BSTAR":"0.00303520000000","ECCENTRICITY":"0.00019100","CENTER_NAME":"EARTH","MEAN_ELEMENT_THEORY":"SGP4","COUNTRY_CODE":"US","APOAPSIS":"541.139","RA_OF_ASC_NODE":"212.1621","OBJECT_NAME":"STARLINK-3619","GP_ID":"208203524"},{"EPOCH":"2022-07-15T22:00:00.999936","SEMIMAJOR_AXIS":"6917.953","FILE":"3514839","INCLINATION":"53.2164","PERIAPSIS":"538.402","OBJECT_TYPE":"PAYLOAD","DECAY_DATE":null,"PERIOD":"95.439","SITE":"AFWTR","ELEMENT_SET_NO":"999","ARG_OF_PERICENTER":"37.6635","LAUNCH_DATE":"2022-02-25","REV_AT_EPOCH":"130","OBJECT_ID":"2022-017W","MEAN_MOTION_DOT":"0.00040749","TIME_SYSTEM":"UTC","MEAN_MOTION_DDOT":"0.0000000000000","TLE_LINE1":"1 51788U 22017W   22196.91667824  .00040749  00000-0  25653-2 0  9991","EPHEMERIS_TYPE":"0","MEAN_ANOMALY":"77.8825","CLASSIFICATION_TYPE":"U","REF_FRAME":"TEME","MEAN_MOTION":"15.08816335","RCS_SIZE":"LARGE","TLE_LINE2":"2 51788  53.2164 212.1760 0002047  37.6635  77.8825 15.08816335  1305","MEAN_ELEMENT_THEORY":"SGP4","COUNTRY_CODE":"US","APOAPSIS":"541.234","ECCENTRICITY":"0.00020470","CENTER_NAME":"EARTH","OBJECT_NAME":"STARLINK-3641","GP_ID":"208203774","RA_OF_ASC_NODE":"212.1760","BSTAR":"0.00256530000000","NORAD_CAT_ID":"51788"}];
